{
  "type": "FeatureCollection",
  "features": [
    {
      "type": "Feature",
      "properties": {
        "norad_id": 38867,
        "name": "INTELSAT 23 (IS-23)",
        "group": "intelsat",
        "lat": -0.020076500656580853,
        "lon": -103.25900825481392,
        "alt_km": 35780.92593414579,
        "timestamp": "2025-12-03T15:48:02.769210+00:00",
        "meta_object_name": "INTELSAT 23 (IS-23)",
        "meta_object_id": "2012-057A",
        "meta_epoch": "2025-12-03T05:47:17.534688",
        "meta_mean_motion": 1.00270034,
        "meta_eccentricity": 0.00017681,
        "meta_inclination": 0.0462,
        "meta_ra_of_asc_node": 118.4792,
        "meta_arg_of_pericenter": 97.6452,
        "meta_mean_anomaly": 250.0312,
        "meta_ephemeris_type": 0,
        "meta_classification_type": "U",
        "meta_norad_cat_id": 38867,
        "meta_element_set_no": 999,
        "meta_rev_at_epoch": 4799,
        "meta_bstar": 0,
        "meta_mean_motion_dot": -2.66e-06,
        "meta_mean_motion_ddot": 0,
        "tle_line1": "1 38867U 12057A   25337.24117517 -.00000266  00000+0  00000+0 0  9998",
        "tle_line2": "2 38867   0.0462 118.4792 0001768  97.6452 250.0312  1.00270034 47992"
      },
      "geometry": {
        "type": "Point",
        "coordinates": [
          -103.25900825481392,
          -0.020076500656580853
        ]
      }
    },
    {
      "type": "Feature",
      "properties": {
        "norad_id": 39360,
        "name": "FM-6",
        "group": "intelsat",
        "lat": 0.01424131978812576,
        "lon": -166.4186013754965,
        "alt_km": 35775.4530196244,
        "timestamp": "2025-12-03T15:48:02.769221+00:00",
        "meta_object_name": "FM-6",
        "meta_object_id": "2013-058A",
        "meta_epoch": "2025-12-03T06:21:14.391360",
        "meta_mean_motion": 1.0026997,
        "meta_eccentricity": 0.00028249,
        "meta_inclination": 0.0051,
        "meta_ra_of_asc_node": 102.0292,
        "meta_arg_of_pericenter": 71.1504,
        "meta_mean_anomaly": 238.3284,
        "meta_ephemeris_type": 0,
        "meta_classification_type": "U",
        "meta_norad_cat_id": 39360,
        "meta_element_set_no": 999,
        "meta_rev_at_epoch": 4410,
        "meta_bstar": 0,
        "meta_mean_motion_dot": 2e-08,
        "meta_mean_motion_ddot": 0,
        "tle_line1": "1 39360U 13058A   25337.26474990  .00000002  00000+0  00000+0 0  9999",
        "tle_line2": "2 39360   0.0051 102.0292 0002824  71.1504 238.3284  1.00269970 44102"
      },
      "geometry": {
        "type": "Point",
        "coordinates": [
          -166.4186013754965,
          0.01424131978812576
        ]
      }
    },
    {
      "type": "Feature",
      "properties": {
        "norad_id": 40271,
        "name": "INTELSAT 30 (IS-30)",
        "group": "intelsat",
        "lat": -0.02373272375627065,
        "lon": -145.31130668763328,
        "alt_km": 35789.97227961782,
        "timestamp": "2025-12-03T15:48:02.769231+00:00",
        "meta_object_name": "INTELSAT 30 (IS-30)",
        "meta_object_id": "2014-062A",
        "meta_epoch": "2025-12-03T04:44:31.157376",
        "meta_mean_motion": 1.00269853,
        "meta_eccentricity": 0.0001174,
        "meta_inclination": 0.0142,
        "meta_ra_of_asc_node": 7.7853,
        "meta_arg_of_pericenter": 75.0467,
        "meta_mean_anomaly": 325.5387,
        "meta_ephemeris_type": 0,
        "meta_classification_type": "U",
        "meta_norad_cat_id": 40271,
        "meta_element_set_no": 999,
        "meta_rev_at_epoch": 481,
        "meta_bstar": 0,
        "meta_mean_motion_dot": -1.32e-06,
        "meta_mean_motion_ddot": 0,
        "tle_line1": "1 40271U 14062A   25337.19758284 -.00000132  00000+0  00000+0 0  9996",
        "tle_line2": "2 40271   0.0142   7.7853 0001174  75.0467 325.5387  1.00269853  4815"
      },
      "geometry": {
        "type": "Point",
        "coordinates": [
          -145.31130668763328,
          -0.02373272375627065
        ]
      }
    },
    {
      "type": "Feature",
      "properties": {
        "norad_id": 40333,
        "name": "DIRECTV 14",
        "group": "intelsat",
        "lat": -0.040447606240881735,
        "lon": -149.49268663085,
        "alt_km": 35785.5844802795,
        "timestamp": "2025-12-03T15:48:02.769241+00:00",
        "meta_object_name": "DIRECTV 14",
        "meta_object_id": "2014-078B",
        "meta_epoch": "2025-12-03T06:48:38.769120",
        "meta_mean_motion": 1.00269012,
        "meta_eccentricity": 3.065e-05,
        "meta_inclination": 0.0189,
        "meta_ra_of_asc_node": 328.0203,
        "meta_arg_of_pericenter": 240.423,
        "meta_mean_anomaly": 226.8733,
        "meta_ephemeris_type": 0,
        "meta_classification_type": "U",
        "meta_norad_cat_id": 40333,
        "meta_element_set_no": 999,
        "meta_rev_at_epoch": 4007,
        "meta_bstar": 0,
        "meta_mean_motion_dot": -1.06e-06,
        "meta_mean_motion_ddot": 0,
        "tle_line1": "1 40333U 14078B   25337.28378205 -.00000106  00000+0  00000+0 0  9994",
        "tle_line2": "2 40333   0.0189 328.0203 0000306 240.4230 226.8733  1.00269012 40078"
      },
      "geometry": {
        "type": "Point",
        "coordinates": [
          -149.49268663085,
          -0.040447606240881735
        ]
      }
    },
    {
      "type": "Feature",
      "properties": {
        "norad_id": 40663,
        "name": "DIRECTV 15",
        "group": "intelsat",
        "lat": -0.0008211836309983308,
        "lon": -153.14832091999654,
        "alt_km": 35785.836423748464,
        "timestamp": "2025-12-03T15:48:02.769252+00:00",
        "meta_object_name": "DIRECTV 15",
        "meta_object_id": "2015-026A",
        "meta_epoch": "2025-12-02T15:00:23.376384",
        "meta_mean_motion": 1.00270418,
        "meta_eccentricity": 2.986e-05,
        "meta_inclination": 0.0433,
        "meta_ra_of_asc_node": 100.4968,
        "meta_arg_of_pericenter": 166.0499,
        "meta_mean_anomaly": 287.4051,
        "meta_ephemeris_type": 0,
        "meta_classification_type": "U",
        "meta_norad_cat_id": 40663,
        "meta_element_set_no": 999,
        "meta_rev_at_epoch": 3849,
        "meta_bstar": 0,
        "meta_mean_motion_dot": -8.2e-07,
        "meta_mean_motion_ddot": 0,
        "tle_line1": "1 40663U 15026A   25336.62527056 -.00000082  00000+0  00000+0 0  9994",
        "tle_line2": "2 40663   0.0433 100.4968 0000298 166.0499 287.4051  1.00270418 38497"
      },
      "geometry": {
        "type": "Point",
        "coordinates": [
          -153.14832091999654,
          -0.0008211836309983308
        ]
      }
    },
    {
      "type": "Feature",
      "properties": {
        "norad_id": 40664,
        "name": "SKY MEXICO-1",
        "group": "intelsat",
        "lat": -0.04144807049745331,
        "lon": -129.04641931777536,
        "alt_km": 35776.89165024409,
        "timestamp": "2025-12-03T15:48:02.769262+00:00",
        "meta_object_name": "SKY MEXICO-1",
        "meta_object_id": "2015-026B",
        "meta_epoch": "2025-12-03T06:31:58.361664",
        "meta_mean_motion": 1.00270575,
        "meta_eccentricity": 0.00027593,
        "meta_inclination": 0.0166,
        "meta_ra_of_asc_node": 330.8561,
        "meta_arg_of_pericenter": 295.2689,
        "meta_mean_anomaly": 185.4744,
        "meta_ephemeris_type": 0,
        "meta_classification_type": "U",
        "meta_norad_cat_id": 40664,
        "meta_element_set_no": 999,
        "meta_rev_at_epoch": 3849,
        "meta_bstar": 0,
        "meta_mean_motion_dot": -2.16e-06,
        "meta_mean_motion_ddot": 0,
        "tle_line1": "1 40664U 15026B   25337.27220326 -.00000216  00000+0  00000+0 0  9996",
        "tle_line2": "2 40664   0.0166 330.8561 0002759 295.2689 185.4744  1.00270575 38499"
      },
      "geometry": {
        "type": "Point",
        "coordinates": [
          -129.04641931777536,
          -0.04144807049745331
        ]
      }
    },
    {
      "type": "Feature",
      "properties": {
        "norad_id": 40874,
        "name": "INTELSAT 34 (IS-34)",
        "group": "intelsat",
        "lat": -0.030452291259501482,
        "lon": -105.76239641243698,
        "alt_km": 35786.36727572301,
        "timestamp": "2025-12-03T15:48:02.769273+00:00",
        "meta_object_name": "INTELSAT 34 (IS-34)",
        "meta_object_id": "2015-039A",
        "meta_epoch": "2025-12-03T06:38:35.228832",
        "meta_mean_motion": 1.00270303,
        "meta_eccentricity": 5.656e-05,
        "meta_inclination": 0.0134,
        "meta_ra_of_asc_node": 301.5187,
        "meta_arg_of_pericenter": 226.9151,
        "meta_mean_anomaly": 308.0835,
        "meta_ephemeris_type": 0,
        "meta_classification_type": "U",
        "meta_norad_cat_id": 40874,
        "meta_element_set_no": 999,
        "meta_rev_at_epoch": 3766,
        "meta_bstar": 0,
        "meta_mean_motion_dot": -2.67e-06,
        "meta_mean_motion_ddot": 0,
        "tle_line1": "1 40874U 15039A   25337.27679663 -.00000267  00000+0  00000+0 0  9991",
        "tle_line2": "2 40874   0.0134 301.5187 0000565 226.9151 308.0835  1.00270303 37665"
      },
      "geometry": {
        "type": "Point",
        "coordinates": [
          -105.76239641243698,
          -0.030452291259501482
        ]
      }
    }
  ]
}